ONEWEB-0156             
1 48052U 21025L   23263.44938188 -.00000063  00000+0 -20689-3 0  9998
2 48052  87.9003 159.3377 0001779  74.9820 285.1505 13.13470819122207
ONEWEB-0161             
1 48053U 21025M   23263.42187376 -.00000057  00000+0 -19217-3 0  9990
2 48053  87.9070 159.3275 0001745  67.6651 292.4663 13.13467623122130
ONEWEB-0158             
1 48054U 21025N   23263.61444104  .00000175  00000+0  44310-3 0  9998
2 48054  87.8997 159.3113 0001965  82.9744 277.1608 13.13473340122284
ONEWEB-0157             
1 48055U 21025P   23263.40918103  .00000320  00000+0  84126-3 0  9992
2 48055  87.9078 159.3344 0001638  69.1678 290.9626 13.13468354122194
ONEWEB-0162             
1 48056U 21025Q   23263.44728042 -.00000179  00000+0 -52602-3 0  9996
2 48056  87.9074 159.3257 0001752  76.3319 283.8005 13.13472508122179
ONEWEB-0155             
1 48057U 21025R   23263.23990391  .00000413  00000+0  10958-2 0  9998
2 48057  87.9078 159.3728 0001867  73.5404 286.5930 13.13472421122281
ONEWEB-0149             
1 48058U 21025S   23263.41340936 -.00000154  00000+0 -45642-3 0  9996
2 48058  87.9078 159.3365 0001379  79.6630 280.4655 13.13469714122115
ONEWEB-0148             
1 48059U 21025T   23263.45361968  .00000048  00000+0  97494-4 0  9992
2 48059  87.9071 159.3369 0000976  71.6356 288.4879 13.13472897122248
